CCSDS_OMM_VERS = 2.0
CREATION_DATE  = 
ORIGINATOR     = 

OBJECT_NAME    = STARLINK-36767
OBJECT_ID      = 2026-032T
CENTER_NAME    = EARTH
REF_FRAME      = TEME
TIME_SYSTEM    = UTC
MEAN_ELEMENT_THEORY = SGP/SGP4

EPOCH          = 2026-03-10T04:24:36.076032
MEAN_MOTION    = 15.75279215
ECCENTRICITY   = .0001419
INCLINATION    = 97.2844
RA_OF_ASC_NODE = 255.7295
ARG_OF_PERICENTER = 72.1346
MEAN_ANOMALY   = 288.0073

EPHEMERIS_TYPE = 0
CLASSIFICATION_TYPE = U
NORAD_CAT_ID   = 67814
ELEMENT_SET_NO = 999
REV_AT_EPOCH   = 486
BSTAR          = .14177E-2
MEAN_MOTION_DOT = .217639E-2
MEAN_MOTION_DDOT = 0

CCSDS_OMM_VERS = 2.0
CREATION_DATE  = 
ORIGINATOR     = 

OBJECT_NAME    = STARLINK-36797
OBJECT_ID      = 2026-032U
CENTER_NAME    = EARTH
REF_FRAME      = TEME
TIME_SYSTEM    = UTC
MEAN_ELEMENT_THEORY = SGP/SGP4

EPOCH          = 2026-03-10T04:11:53.807712
MEAN_MOTION    = 15.75284151
ECCENTRICITY   = .0001536
INCLINATION    = 97.2848
RA_OF_ASC_NODE = 255.7428
ARG_OF_PERICENTER = 64.1288
MEAN_ANOMALY   = 296.0135

EPHEMERIS_TYPE = 0
CLASSIFICATION_TYPE = U
NORAD_CAT_ID   = 67815
ELEMENT_SET_NO = 999
REV_AT_EPOCH   = 486
BSTAR          = .14029E-2
MEAN_MOTION_DOT = .215352E-2
MEAN_MOTION_DDOT = 0

CCSDS_OMM_VERS = 2.0
CREATION_DATE  = 
ORIGINATOR     = 

OBJECT_NAME    = STARLINK-36343
OBJECT_ID      = 2026-032V
CENTER_NAME    = EARTH
REF_FRAME      = TEME
TIME_SYSTEM    = UTC
MEAN_ELEMENT_THEORY = SGP/SGP4

EPOCH          = 2026-03-10T04:00:01.999584
MEAN_MOTION    = 15.75215641
ECCENTRICITY   = .0001481
INCLINATION    = 97.2844
RA_OF_ASC_NODE = 255.7822
ARG_OF_PERICENTER = 93.7033
MEAN_ANOMALY   = 331.7227

EPHEMERIS_TYPE = 0
CLASSIFICATION_TYPE = U
NORAD_CAT_ID   = 67816
ELEMENT_SET_NO = 999
REV_AT_EPOCH   = 479
BSTAR          = -.35544E-3
MEAN_MOTION_DOT = -.52878E-3
MEAN_MOTION_DDOT = 0

CCSDS_OMM_VERS = 2.0
CREATION_DATE  = 
ORIGINATOR     = 

OBJECT_NAME    = STARLINK-36756
OBJECT_ID      = 2026-032W
CENTER_NAME    = EARTH
REF_FRAME      = TEME
TIME_SYSTEM    = UTC
MEAN_ELEMENT_THEORY = SGP/SGP4

EPOCH          = 2026-03-10T03:59:11.860800
MEAN_MOTION    = 15.75265081
ECCENTRICITY   = .0001214
INCLINATION    = 97.2843
RA_OF_ASC_NODE = 255.7538
ARG_OF_PERICENTER = 92.9480
MEAN_ANOMALY   = 267.1924

EPHEMERIS_TYPE = 0
CLASSIFICATION_TYPE = U
NORAD_CAT_ID   = 67817
ELEMENT_SET_NO = 999
REV_AT_EPOCH   = 485
BSTAR          = .14855E-2
MEAN_MOTION_DOT = .228207E-2
MEAN_MOTION_DDOT = 0

CCSDS_OMM_VERS = 2.0
CREATION_DATE  = 
ORIGINATOR     = 

OBJECT_NAME    = STARLINK-36346
OBJECT_ID      = 2026-032X
CENTER_NAME    = EARTH
REF_FRAME      = TEME
TIME_SYSTEM    = UTC
MEAN_ELEMENT_THEORY = SGP/SGP4

EPOCH          = 2026-03-10T04:00:01.999584
MEAN_MOTION    = 15.75224687
ECCENTRICITY   = .0001607
INCLINATION    = 97.2850
RA_OF_ASC_NODE = 255.7929
ARG_OF_PERICENTER = 85.4331
MEAN_ANOMALY   = 3.9883

EPHEMERIS_TYPE = 0
CLASSIFICATION_TYPE = U
NORAD_CAT_ID   = 67818
ELEMENT_SET_NO = 999
REV_AT_EPOCH   = 485
BSTAR          = -.53623E-3
MEAN_MOTION_DOT = -.79494E-3
MEAN_MOTION_DDOT = 0

CCSDS_OMM_VERS = 2.0
CREATION_DATE  = 
ORIGINATOR     = 

OBJECT_NAME    = STARLINK-36788
OBJECT_ID      = 2026-032Y
CENTER_NAME    = EARTH
REF_FRAME      = TEME
TIME_SYSTEM    = UTC
MEAN_ELEMENT_THEORY = SGP/SGP4

EPOCH          = 2026-03-10T04:14:56.636160
MEAN_MOTION    = 15.75287899
ECCENTRICITY   = .000131
INCLINATION    = 97.2846
RA_OF_ASC_NODE = 255.7390
ARG_OF_PERICENTER = 83.3814
MEAN_ANOMALY   = 276.7600

EPHEMERIS_TYPE = 0
CLASSIFICATION_TYPE = U
NORAD_CAT_ID   = 67819
ELEMENT_SET_NO = 999
REV_AT_EPOCH   = 486
BSTAR          = .14281E-2
MEAN_MOTION_DOT = .219372E-2
MEAN_MOTION_DDOT = 0

CCSDS_OMM_VERS = 2.0
CREATION_DATE  = 
ORIGINATOR     = 

OBJECT_NAME    = STARLINK-36353
OBJECT_ID      = 2026-032Z
CENTER_NAME    = EARTH
REF_FRAME      = TEME
TIME_SYSTEM    = UTC
MEAN_ELEMENT_THEORY = SGP/SGP4

EPOCH          = 2026-03-10T04:09:21.297024
MEAN_MOTION    = 15.75285474
ECCENTRICITY   = .0001388
INCLINATION    = 97.2845
RA_OF_ASC_NODE = 255.7440
ARG_OF_PERICENTER = 89.7825
MEAN_ANOMALY   = 270.3599

EPHEMERIS_TYPE = 0
CLASSIFICATION_TYPE = U
NORAD_CAT_ID   = 67820
ELEMENT_SET_NO = 999
REV_AT_EPOCH   = 486
BSTAR          = .14063E-2
MEAN_MOTION_DOT = .215912E-2
MEAN_MOTION_DDOT = 0

CCSDS_OMM_VERS = 2.0
CREATION_DATE  = 
ORIGINATOR     = 

OBJECT_NAME    = STARLINK-36644
OBJECT_ID      = 2026-033A
CENTER_NAME    = EARTH
REF_FRAME      = TEME
TIME_SYSTEM    = UTC
MEAN_ELEMENT_THEORY = SGP/SGP4

EPOCH          = 2026-03-10T00:14:22.513056
MEAN_MOTION    = 15.82115049
ECCENTRICITY   = .0001644
INCLINATION    = 42.9990
RA_OF_ASC_NODE = 269.5632
ARG_OF_PERICENTER = 289.5078
MEAN_ANOMALY   = 70.5616

EPHEMERIS_TYPE = 0
CLASSIFICATION_TYPE = U
NORAD_CAT_ID   = 67821
ELEMENT_SET_NO = 999
REV_AT_EPOCH   = 467
BSTAR          = .13836E-2
MEAN_MOTION_DOT = .302609E-2
MEAN_MOTION_DDOT = 0

CCSDS_OMM_VERS = 2.0
CREATION_DATE  = 
ORIGINATOR     = 

OBJECT_NAME    = STARLINK-36643
OBJECT_ID      = 2026-033B
CENTER_NAME    = EARTH
REF_FRAME      = TEME
TIME_SYSTEM    = UTC
MEAN_ELEMENT_THEORY = SGP/SGP4

EPOCH          = 2026-03-10T00:13:17.640480
MEAN_MOTION    = 15.82128842
ECCENTRICITY   = .0001764
INCLINATION    = 42.9985
RA_OF_ASC_NODE = 269.5560
ARG_OF_PERICENTER = 263.9802
MEAN_ANOMALY   = 96.0868

EPHEMERIS_TYPE = 0
CLASSIFICATION_TYPE = U
NORAD_CAT_ID   = 67822
ELEMENT_SET_NO = 999
REV_AT_EPOCH   = 467
BSTAR          = .14268E-2
MEAN_MOTION_DOT = .312654E-2
MEAN_MOTION_DDOT = 0

CCSDS_OMM_VERS = 2.0
CREATION_DATE  = 
ORIGINATOR     = 

OBJECT_NAME    = STARLINK-36646
OBJECT_ID      = 2026-033C
CENTER_NAME    = EARTH
REF_FRAME      = TEME
TIME_SYSTEM    = UTC
MEAN_ELEMENT_THEORY = SGP/SGP4

EPOCH          = 2026-03-10T00:12:13.019328
MEAN_MOTION    = 15.82124190
ECCENTRICITY   = .0001881
INCLINATION    = 42.9983
RA_OF_ASC_NODE = 269.5506
ARG_OF_PERICENTER = 264.3700
MEAN_ANOMALY   = 95.6957

EPHEMERIS_TYPE = 0
CLASSIFICATION_TYPE = U
NORAD_CAT_ID   = 67823
ELEMENT_SET_NO = 999
REV_AT_EPOCH   = 467
BSTAR          = .14504E-2
MEAN_MOTION_DOT = .317968E-2
MEAN_MOTION_DDOT = 0

CCSDS_OMM_VERS = 2.0
CREATION_DATE  = 
ORIGINATOR     = 

OBJECT_NAME    = STARLINK-36647
OBJECT_ID      = 2026-033D
CENTER_NAME    = EARTH
REF_FRAME      = TEME
TIME_SYSTEM    = UTC
MEAN_ELEMENT_THEORY = SGP/SGP4

EPOCH          = 2026-03-10T00:11:08.215008
MEAN_MOTION    = 15.82144721
ECCENTRICITY   = .0002337
INCLINATION    = 42.9984
RA_OF_ASC_NODE = 269.5445
ARG_OF_PERICENTER = 279.4556
MEAN_ANOMALY   = 80.6051

EPHEMERIS_TYPE = 0
CLASSIFICATION_TYPE = U
NORAD_CAT_ID   = 67824
ELEMENT_SET_NO = 999
REV_AT_EPOCH   = 467
BSTAR          = .18052E-2
MEAN_MOTION_DOT = .400088E-2
MEAN_MOTION_DDOT = 0

CCSDS_OMM_VERS = 2.0
CREATION_DATE  = 
ORIGINATOR     = 

OBJECT_NAME    = STARLINK-36648
OBJECT_ID      = 2026-033E
CENTER_NAME    = EARTH
REF_FRAME      = TEME
TIME_SYSTEM    = UTC
MEAN_ELEMENT_THEORY = SGP/SGP4

EPOCH          = 2026-03-10T00:10:03.230976
MEAN_MOTION    = 15.82150307
ECCENTRICITY   = .0002623
INCLINATION    = 42.9984
RA_OF_ASC_NODE = 269.5384
ARG_OF_PERICENTER = 256.0984
MEAN_ANOMALY   = 103.9596

EPHEMERIS_TYPE = 0
CLASSIFICATION_TYPE = U
NORAD_CAT_ID   = 67825
ELEMENT_SET_NO = 999
REV_AT_EPOCH   = 467
BSTAR          = .1749E-2
MEAN_MOTION_DOT = .387127E-2
MEAN_MOTION_DDOT = 0

