STARLINK-36767          
1 67814U 26032T   26069.18375088  .00217639  00000+0  14177-2 0  9991
2 67814  97.2844 255.7295 0001419  72.1346 288.0073 15.75279215  4865
STARLINK-36797          
1 67815U 26032U   26069.17492833  .00215352  00000+0  14029-2 0  9995
2 67815  97.2848 255.7428 0001536  64.1288 296.0135 15.75284151  4867
STARLINK-36343          
1 67816U 26032V   26069.16668981 -.00052878  00000+0 -35544-3 0  9994
2 67816  97.2844 255.7822 0001481  93.7033 331.7227 15.75215641  4796
STARLINK-36756          
1 67817U 26032W   26069.16610950  .00228207  00000+0  14855-2 0  9998
2 67817  97.2843 255.7538 0001214  92.9480 267.1924 15.75265081  4857
STARLINK-36346          
1 67818U 26032X   26069.16668981 -.00079494  00000+0 -53623-3 0  9997
2 67818  97.2850 255.7929 0001607  85.4331   3.9883 15.75224687  4855
STARLINK-36788          
1 67819U 26032Y   26069.17704440  .00219372  00000+0  14281-2 0  9995
2 67819  97.2846 255.7390 0001310  83.3814 276.7600 15.75287899  4869
STARLINK-36353          
1 67820U 26032Z   26069.17316316  .00215912  00000+0  14063-2 0  9992
2 67820  97.2845 255.7440 0001388  89.7825 270.3599 15.75285474  4867
STARLINK-36644          
1 67821U 26033A   26069.00998279  .00302609  00000+0  13836-2 0  9997
2 67821  42.9990 269.5632 0001644 289.5078  70.5616 15.82115049  4674
STARLINK-36643          
1 67822U 26033B   26069.00923195  .00312654  00000+0  14268-2 0  9994
2 67822  42.9985 269.5560 0001764 263.9802  96.0868 15.82128842  4670
STARLINK-36646          
1 67823U 26033C   26069.00848402  .00317968  00000+0  14504-2 0  9998
2 67823  42.9983 269.5506 0001881 264.3700  95.6957 15.82124190  4677
STARLINK-36647          
1 67824U 26033D   26069.00773397  .00400088  00000+0  18052-2 0  9997
2 67824  42.9984 269.5445 0002337 279.4556  80.6051 15.82144721  4675
STARLINK-36648          
1 67825U 26033E   26069.00698184  .00387127  00000+0  17490-2 0  9991
2 67825  42.9984 269.5384 0002623 256.0984 103.9596 15.82150307  4672
